[{"OBJECT_NAME":"SKYSAT-A","OBJECT_ID":"2013-066C","EPOCH":"2026-03-05T17:33:46.549728","MEAN_MOTION":15.12319217,"ECCENTRICITY":0.002038,"INCLINATION":97.3958,"RA_OF_ASC_NODE":117.3979,"ARG_OF_PERICENTER":315.2376,"MEAN_ANOMALY":44.7209,"EPHEMERIS_TYPE":0,"CLASSIFICATION_TYPE":"U","NORAD_CAT_ID":39418,"ELEMENT_SET_NO":999,"REV_AT_EPOCH":67284,"BSTAR":0.00025969,"MEAN_MOTION_DOT":4.456e-5,"MEAN_MOTION_DDOT":0},{"OBJECT_NAME":"SKYSAT-B","OBJECT_ID":"2014-037D","EPOCH":"2026-03-05T19:53:10.195872","MEAN_MOTION":14.87708667,"ECCENTRICITY":0.0004231,"INCLINATION":98.3725,"RA_OF_ASC_NODE":17.9976,"ARG_OF_PERICENTER":249.7456,"MEAN_ANOMALY":110.3304,"EPHEMERIS_TYPE":0,"CLASSIFICATION_TYPE":"U","NORAD_CAT_ID":40072,"ELEMENT_SET_NO":999,"REV_AT_EPOCH":63059,"BSTAR":0.00031129,"MEAN_MOTION_DOT":2.776e-5,"MEAN_MOTION_DDOT":0},{"OBJECT_NAME":"SKYSAT-C1","OBJECT_ID":"2016-040C","EPOCH":"2026-03-05T15:47:07.363104","MEAN_MOTION":15.34412247,"ECCENTRICITY":0.0003831,"INCLINATION":96.9703,"RA_OF_ASC_NODE":102.0473,"ARG_OF_PERICENTER":61.7119,"MEAN_ANOMALY":298.4512,"EPHEMERIS_TYPE":0,"CLASSIFICATION_TYPE":"U","NORAD_CAT_ID":41601,"ELEMENT_SET_NO":999,"REV_AT_EPOCH":54198,"BSTAR":0.00035129,"MEAN_MOTION_DOT":0.00011641,"MEAN_MOTION_DDOT":0},{"OBJECT_NAME":"SKYSAT-C4","OBJECT_ID":"2016-058B","EPOCH":"2026-03-05T20:02:10.230432","MEAN_MOTION":15.45211937,"ECCENTRICITY":8.27e-5,"INCLINATION":96.9291,"RA_OF_ASC_NODE":91.1135,"ARG_OF_PERICENTER":95.5912,"MEAN_ANOMALY":264.5433,"EPHEMERIS_TYPE":0,"CLASSIFICATION_TYPE":"U","NORAD_CAT_ID":41771,"ELEMENT_SET_NO":999,"REV_AT_EPOCH":52949,"BSTAR":0.00044303,"MEAN_MOTION_DOT":0.00020983,"MEAN_MOTION_DDOT":0},{"OBJECT_NAME":"SKYSAT-C5","OBJECT_ID":"2016-058C","EPOCH":"2026-03-05T15:38:01.762656","MEAN_MOTION":15.3419731,"ECCENTRICITY":0.000183,"INCLINATION":97.0617,"RA_OF_ASC_NODE":109.8902,"ARG_OF_PERICENTER":85.2805,"MEAN_ANOMALY":274.8648,"EPHEMERIS_TYPE":0,"CLASSIFICATION_TYPE":"U","NORAD_CAT_ID":41772,"ELEMENT_SET_NO":999,"REV_AT_EPOCH":52787,"BSTAR":0.00032346,"MEAN_MOTION_DOT":0.00010636,"MEAN_MOTION_DDOT":0},{"OBJECT_NAME":"SKYSAT-C2","OBJECT_ID":"2016-058D","EPOCH":"2026-03-05T14:43:47.673408","MEAN_MOTION":15.39570727,"ECCENTRICITY":0.0005201,"INCLINATION":97.0281,"RA_OF_ASC_NODE":90.7259,"ARG_OF_PERICENTER":77.1146,"MEAN_ANOMALY":283.0682,"EPHEMERIS_TYPE":0,"CLASSIFICATION_TYPE":"U","NORAD_CAT_ID":41773,"ELEMENT_SET_NO":999,"REV_AT_EPOCH":52910,"BSTAR":0.0003964,"MEAN_MOTION_DOT":0.00015535,"MEAN_MOTION_DDOT":0},{"OBJECT_NAME":"SKYSAT-C3","OBJECT_ID":"2016-058E","EPOCH":"2026-03-05T14:46:15.056256","MEAN_MOTION":15.48103267,"ECCENTRICITY":0.0001601,"INCLINATION":96.918,"RA_OF_ASC_NODE":99.6597,"ARG_OF_PERICENTER":105.1101,"MEAN_ANOMALY":255.0328,"EPHEMERIS_TYPE":0,"CLASSIFICATION_TYPE":"U","NORAD_CAT_ID":41774,"ELEMENT_SET_NO":999,"REV_AT_EPOCH":53006,"BSTAR":0.00046828,"MEAN_MOTION_DOT":0.00024516,"MEAN_MOTION_DDOT":0},{"OBJECT_NAME":"SKYSAT-C11","OBJECT_ID":"2017-068A","EPOCH":"2026-03-05T18:49:29.015904","MEAN_MOTION":15.52093863,"ECCENTRICITY":7.5e-5,"INCLINATION":97.4198,"RA_OF_ASC_NODE":209.6404,"ARG_OF_PERICENTER":86.7269,"MEAN_ANOMALY":273.4069,"EPHEMERIS_TYPE":0,"CLASSIFICATION_TYPE":"U","NORAD_CAT_ID":42987,"ELEMENT_SET_NO":999,"REV_AT_EPOCH":46717,"BSTAR":0.00050368,"MEAN_MOTION_DOT":0.00030375,"MEAN_MOTION_DDOT":0},{"OBJECT_NAME":"SKYSAT-C10","OBJECT_ID":"2017-068B","EPOCH":"2026-03-05T08:34:38.361216","MEAN_MOTION":15.32554062,"ECCENTRICITY":0.0001128,"INCLINATION":97.4333,"RA_OF_ASC_NODE":200.4491,"ARG_OF_PERICENTER":90.3517,"MEAN_ANOMALY":269.7854,"EPHEMERIS_TYPE":0,"CLASSIFICATION_TYPE":"U","NORAD_CAT_ID":42988,"ELEMENT_SET_NO":999,"REV_AT_EPOCH":46644,"BSTAR":0.00044207,"MEAN_MOTION_DOT":0.00013828,"MEAN_MOTION_DDOT":0},{"OBJECT_NAME":"SKYSAT-C9","OBJECT_ID":"2017-068C","EPOCH":"2026-03-05T02:18:22.085280","MEAN_MOTION":15.38708919,"ECCENTRICITY":0.00097169,"INCLINATION":97.4257,"RA_OF_ASC_NODE":200.1847,"ARG_OF_PERICENTER":147.8994,"MEAN_ANOMALY":212.2845,"EPHEMERIS_TYPE":0,"CLASSIFICATION_TYPE":"U","NORAD_CAT_ID":42989,"ELEMENT_SET_NO":999,"REV_AT_EPOCH":46673,"BSTAR":0.00049259401,"MEAN_MOTION_DOT":0.0001881,"MEAN_MOTION_DDOT":0},{"OBJECT_NAME":"SKYSAT-C8","OBJECT_ID":"2017-068D","EPOCH":"2026-03-05T08:20:38.660352","MEAN_MOTION":15.34624389,"ECCENTRICITY":8.59e-5,"INCLINATION":97.4349,"RA_OF_ASC_NODE":199.8628,"ARG_OF_PERICENTER":119.9658,"MEAN_ANOMALY":240.1671,"EPHEMERIS_TYPE":0,"CLASSIFICATION_TYPE":"U","NORAD_CAT_ID":42990,"ELEMENT_SET_NO":999,"REV_AT_EPOCH":46637,"BSTAR":0.00020698,"MEAN_MOTION_DOT":6.863e-5,"MEAN_MOTION_DDOT":0},{"OBJECT_NAME":"SKYSAT-C7","OBJECT_ID":"2017-068E","EPOCH":"2026-03-05T19:03:26.677728","MEAN_MOTION":15.34596257,"ECCENTRICITY":0.0007361,"INCLINATION":97.436,"RA_OF_ASC_NODE":201.2953,"ARG_OF_PERICENTER":115.2558,"MEAN_ANOMALY":244.9448,"EPHEMERIS_TYPE":0,"CLASSIFICATION_TYPE":"U","NORAD_CAT_ID":42991,"ELEMENT_SET_NO":999,"REV_AT_EPOCH":46650,"BSTAR":0.00048192,"MEAN_MOTION_DOT":0.00016102,"MEAN_MOTION_DDOT":0},{"OBJECT_NAME":"SKYSAT-C6","OBJECT_ID":"2017-068F","EPOCH":"2026-03-05T15:41:58.742304","MEAN_MOTION":15.32630748,"ECCENTRICITY":0.0003632,"INCLINATION":97.4396,"RA_OF_ASC_NODE":201.4513,"ARG_OF_PERICENTER":121.6133,"MEAN_ANOMALY":238.5464,"EPHEMERIS_TYPE":0,"CLASSIFICATION_TYPE":"U","NORAD_CAT_ID":42992,"ELEMENT_SET_NO":999,"REV_AT_EPOCH":46645,"BSTAR":0.00050738,"MEAN_MOTION_DOT":0.00015927,"MEAN_MOTION_DDOT":0},{"OBJECT_NAME":"SKYSAT-C12","OBJECT_ID":"2018-099AR","EPOCH":"2026-03-05T14:45:22.234752","MEAN_MOTION":15.45428423,"ECCENTRICITY":0.0005133,"INCLINATION":96.938,"RA_OF_ASC_NODE":92.2038,"ARG_OF_PERICENTER":149.1452,"MEAN_ANOMALY":211.0101,"EPHEMERIS_TYPE":0,"CLASSIFICATION_TYPE":"U","NORAD_CAT_ID":43797,"ELEMENT_SET_NO":999,"REV_AT_EPOCH":40584,"BSTAR":0.00042979,"MEAN_MOTION_DOT":0.00020512,"MEAN_MOTION_DDOT":0},{"OBJECT_NAME":"SKYSAT-C13","OBJECT_ID":"2018-099AW","EPOCH":"2026-03-05T15:58:29.523072","MEAN_MOTION":15.7590122,"ECCENTRICITY":0.0003496,"INCLINATION":96.9409,"RA_OF_ASC_NODE":112.2939,"ARG_OF_PERICENTER":214.5355,"MEAN_ANOMALY":145.5685,"EPHEMERIS_TYPE":0,"CLASSIFICATION_TYPE":"U","NORAD_CAT_ID":43802,"ELEMENT_SET_NO":999,"REV_AT_EPOCH":40653,"BSTAR":0.00060013,"MEAN_MOTION_DOT":0.00093221,"MEAN_MOTION_DDOT":0},{"OBJECT_NAME":"FLOCK 4Q-16","OBJECT_ID":"2023-174R","EPOCH":"2026-03-05T17:44:19.413312","MEAN_MOTION":15.44529443,"ECCENTRICITY":0.0007942,"INCLINATION":97.3873,"RA_OF_ASC_NODE":150.8025,"ARG_OF_PERICENTER":171.1277,"MEAN_ANOMALY":189.0113,"EPHEMERIS_TYPE":0,"CLASSIFICATION_TYPE":"U","NORAD_CAT_ID":58271,"ELEMENT_SET_NO":999,"REV_AT_EPOCH":12958,"BSTAR":0.00056541,"MEAN_MOTION_DOT":0.00026228,"MEAN_MOTION_DDOT":0},{"OBJECT_NAME":"FLOCK 4Q-11","OBJECT_ID":"2023-174T","EPOCH":"2026-03-05T16:22:56.247744","MEAN_MOTION":15.44901715,"ECCENTRICITY":0.0007628,"INCLINATION":97.3909,"RA_OF_ASC_NODE":151.2212,"ARG_OF_PERICENTER":168.9787,"MEAN_ANOMALY":191.163,"EPHEMERIS_TYPE":0,"CLASSIFICATION_TYPE":"U","NORAD_CAT_ID":58273,"ELEMENT_SET_NO":999,"REV_AT_EPOCH":12958,"BSTAR":0.00059897,"MEAN_MOTION_DOT":0.00028148,"MEAN_MOTION_DDOT":0}]
